OBJECT_NAME,OBJECT_ID,EPOCH,MEAN_MOTION,ECCENTRICITY,INCLINATION,RA_OF_ASC_NODE,ARG_OF_PERICENTER,MEAN_ANOMALY,EPHEMERIS_TYPE,CLASSIFICATION_TYPE,NORAD_CAT_ID,ELEMENT_SET_NO,REV_AT_EPOCH,BSTAR,MEAN_MOTION_DOT,MEAN_MOTION_DDOT
STARLINK-11583 [DTC],2025-031L,2026-07-02T14:39:01.188288,15.70922163,.0001799,42.9996,29.0049,242.1971,117.8714,0,U,62991,999,8082,.14109E-2,.185319E-2,0
STARLINK-11570 [DTC],2025-031M,2026-07-02T20:52:54.286464,15.70855150,.00029181,43.0015,27.5127,276.1663,83.8872,0,U,62992,999,8084,.12239957E-2,.159779E-2,0
STARLINK-11576 [DTC],2025-031N,2026-07-02T20:29:57.939648,15.70877052,.00004509,42.9996,27.3854,230.2672,129.8156,0,U,62993,999,8084,.1642923E-2,.216278E-2,0
STARLINK-32899,2025-031P,2026-07-02T18:55:31.825920,15.27576706,.00013016,42.9972,213.7071,273.6456,86.4247,0,U,62994,999,7869,.87990913E-3,.24028E-3,0
STARLINK-32819,2025-031Q,2026-07-02T11:50:47.268096,15.27599392,.0002419,43.0007,214.9277,274.4048,85.6527,0,U,62995,999,7865,.63881E-3,.17369E-3,0
STARLINK-32703,2025-031R,2026-07-02T18:48:09.180576,15.27555975,.00018484,42.9982,213.6674,264.9900,95.0741,0,U,62996,999,7869,.32691757E-3,.8738E-4,0
STARLINK-32881,2025-031S,2026-07-02T13:10:10.162272,15.27562253,.0002137,43.0011,214.4807,285.2129,74.8486,0,U,62997,999,7866,.3087E-3,.8238E-4,0
STARLINK-32898,2025-031T,2026-07-02T18:38:51.930816,15.27575776,.00030036,42.9992,213.6168,264.0677,95.9833,0,U,62998,999,7869,.78112658E-3,.21294E-3,0
STARLINK-32658,2025-031U,2026-07-02T13:15:41.418144,15.27606693,.0002361,43.0019,214.5094,282.0388,78.0199,0,U,62999,999,7866,.6906E-3,.18806E-3,0
STARLINK-32673,2025-031V,2026-07-02T18:24:04.322880,15.27588432,.00016475,42.9985,213.5339,271.5092,88.5571,0,U,63000,999,7869,.85619222E-3,.23379E-3,0
STARLINK-32437,2025-031W,2026-07-02T12:44:28.051008,15.27565989,.0001708,42.9989,215.2128,32.1074,327.9881,0,U,63001,999,7865,.56935E-3,.15431E-3,0
FOSSASAT-2E20 (TAT-O),2025-009DN,2026-07-02T15:47:15.134784,15.30118518,.00015117,97.3164,259.2950,259.0845,101.0226,0,U,63003,999,13887,.47912637E-3,.13901E-3,0
STARLINK-11448 [DTC],2025-032A,2026-07-02T19:29:25.682784,15.70867319,.00014711,42.9989,221.0605,270.3439,89.7260,0,U,63005,999,8033,.11806763E-2,.154065E-2,0
STARLINK-11553 [DTC],2025-032B,2026-07-02T13:08:04.737984,15.70950860,.0002282,42.9986,223.4008,255.4220,104.6394,0,U,63006,999,8027,.17435E-2,.230659E-2,0
STARLINK-11526 [DTC],2025-032C,2026-07-02T19:21:47.203776,15.70846942,.00012531,42.9974,221.0170,309.0171,51.0585,0,U,63007,999,8032,.11143668E-2,.145104E-2,0
STARLINK-11405 [DTC],2025-032D,2026-07-02T12:54:06.306336,15.70849327,.0001295,42.9982,223.3223,305.7938,54.2809,0,U,63008,999,8012,.58873E-3,.75814E-3,0
STARLINK-11586 [DTC],2025-032E,2026-07-01T19:42:41.211648,15.70936164,.00016323,42.9990,227.4015,333.4103,26.6681,0,U,63009,999,8016,.15094015E-2,.198731E-2,0
STARLINK-11574 [DTC],2025-032F,2026-07-02T12:45:10.044000,15.70770685,.0001786,42.9986,223.2751,20.5986,339.4954,0,U,63010,999,8027,.11626E-2,.151026E-2,0
STARLINK-11580 [DTC],2025-032G,2026-07-02T19:44:43.849536,15.70863945,.00002024,42.9986,221.1425,148.1397,211.9483,0,U,63011,999,8017,.14701324E-2,.192828E-2,0
STARLINK-11449 [DTC],2025-032H,2026-07-02T13:53:46.418208,15.70882736,.0001411,43.0019,222.7595,319.6489,40.4274,0,U,63012,999,8028,.13607E-2,.178257E-2,0
STARLINK-11577 [DTC],2025-032J,2026-07-02T14:09:04.298112,15.70843066,.00016794,42.9995,222.8448,27.4823,332.6133,0,U,63013,999,8028,.12221848E-2,.159439E-2,0
STARLINK-11578 [DTC],2025-032K,2026-07-02T19:06:38.833920,15.70926906,.00067333,42.9986,221.8228,263.3220,96.6882,0,U,63014,999,8026,.10744533E-2,.140426E-2,0
STARLINK-11541 [DTC],2025-032L,2026-07-02T19:37:04.574784,15.70857756,.00011884,43.0011,221.0968,287.4416,72.6322,0,U,63015,999,8033,.11580155E-2,.15098E-2,0
STARLINK-11545 [DTC],2025-032M,2026-07-02T19:52:21.392832,15.70859071,.00033669,43.0013,221.1839,260.6919,99.3568,0,U,63016,999,8033,.12367594E-2,.16152E-2,0
STARLINK-11400 [DTC],2025-032N,2026-07-02T12:52:47.945856,15.70836779,.0001826,42.9980,223.3112,1.0956,358.9915,0,U,63017,999,8027,.14622E-2,.191531E-2,0
STARLINK-32870,2025-032P,2026-07-02T16:02:23.793216,15.27571497,.00005247,43.0023,46.7834,280.5144,79.5649,0,U,63018,999,7820,-.17742855E-4,-.75E-5,0
STARLINK-32872,2025-032Q,2026-07-02T16:33:51.188256,15.27610133,.00016002,43.0018,46.9539,266.1550,93.9119,0,U,63019,999,7820,.71616912E-3,.19516E-3,0
STARLINK-32677,2025-032R,2026-07-02T16:07:56.865216,15.27553975,.00010021,43.0018,46.8149,264.3583,95.7154,0,U,63020,999,7819,.29921604E-3,.7974E-4,0
STARLINK-32929,2025-032S,2026-07-02T16:13:29.928576,15.27563428,.00008738,42.9984,46.8401,224.7356,135.3425,0,U,63021,999,7820,.65617621E-3,.17829E-3,0
STARLINK-32944,2025-032T,2026-07-02T15:05:15.354816,15.27585060,.0002,43.0010,47.3520,275.9538,84.1085,0,U,63022,999,7819,.10003E-2,.27372E-3,0
