STARLINK-11583 [DTC]    
1 62991U 25031L   26183.61043042  .00185319  00000+0  14109-2 0  9991
2 62991  42.9996  29.0049 0001799 242.1971 117.8714 15.70922163 80827
STARLINK-11570 [DTC]    
1 62992U 25031M   26183.87007276  .00159779  00000+0  12240-2 0  9994
2 62992  43.0015  27.5127 0002918 276.1663  83.8872 15.70855150 80841
STARLINK-11576 [DTC]    
1 62993U 25031N   26183.85414282  .00216278  00000+0  16429-2 0  9993
2 62993  42.9996  27.3854 0000450 230.2672 129.8156 15.70877052 80844
STARLINK-32899          
1 62994U 25031P   26183.78856280  .00024028  00000+0  87991-3 0  9997
2 62994  42.9972 213.7071 0001301 273.6456  86.4247 15.27576706 78691
STARLINK-32819          
1 62995U 25031Q   26183.49360264  .00017369  00000+0  63881-3 0  9990
2 62995  43.0007 214.9277 0002419 274.4048  85.6527 15.27599392 78655
STARLINK-32703          
1 62996U 25031R   26183.78343959  .00008738  00000+0  32692-3 0  9991
2 62996  42.9982 213.6674 0001848 264.9900  95.0741 15.27555975 78695
STARLINK-32881          
1 62997U 25031S   26183.54872873  .00008238  00000+0  30870-3 0  9999
2 62997  43.0011 214.4807 0002137 285.2129  74.8486 15.27562253 78664
STARLINK-32898          
1 62998U 25031T   26183.77698994  .00021294  00000+0  78113-3 0  9994
2 62998  42.9992 213.6168 0003003 264.0677  95.9833 15.27575776 78695
STARLINK-32658          
1 62999U 25031U   26183.55256271  .00018806  00000+0  69060-3 0  9995
2 62999  43.0019 214.5094 0002361 282.0388  78.0199 15.27606693 78668
STARLINK-32673          
1 63000U 25031V   26183.76671670  .00023379  00000+0  85619-3 0  9995
2 63000  42.9985 213.5339 0001647 271.5092  88.5571 15.27588432 78697
STARLINK-32437          
1 63001U 25031W   26183.53088022  .00015431  00000+0  56935-3 0  9993
2 63001  42.9989 215.2128 0001708  32.1074 327.9881 15.27565989 78658
FOSSASAT-2E20 (TAT-O)   
1 63003U 25009DN  26183.65781406  .00013901  00000+0  47913-3 0  9995
2 63003  97.3164 259.2950 0001511 259.0845 101.0226 15.30118518138879
STARLINK-11448 [DTC]    
1 63005U 25032A   26183.81210281  .00154065  00000+0  11807-2 0  9998
2 63005  42.9989 221.0605 0001471 270.3439  89.7260 15.70867319 80337
STARLINK-11553 [DTC]    
1 63006U 25032B   26183.54727706  .00230659  00000+0  17435-2 0  9991
2 63006  42.9986 223.4008 0002282 255.4220 104.6394 15.70950860 80273
STARLINK-11526 [DTC]    
1 63007U 25032C   26183.80679634  .00145104  00000+0  11144-2 0  9998
2 63007  42.9974 221.0170 0001253 309.0171  51.0585 15.70846942 80321
STARLINK-11405 [DTC]    
1 63008U 25032D   26183.53757299  .00075814  00000+0  58873-3 0  9994
2 63008  42.9982 223.3223 0001295 305.7938  54.2809 15.70849327 80127
STARLINK-11586 [DTC]    
1 63009U 25032E   26182.82131032  .00198731  00000+0  15094-2 0  9998
2 63009  42.9990 227.4015 0001632 333.4103  26.6681 15.70936164 80169
STARLINK-11574 [DTC]    
1 63010U 25032F   26183.53136625  .00151026  00000+0  11626-2 0  9995
2 63010  42.9986 223.2751 0001786  20.5986 339.4954 15.70770685 80274
STARLINK-11580 [DTC]    
1 63011U 25032G   26183.82272974  .00192828  00000+0  14701-2 0  9998
2 63011  42.9986 221.1425 0000202 148.1397 211.9483 15.70863945 80177
STARLINK-11449 [DTC]    
1 63012U 25032H   26183.57900947  .00178257  00000+0  13607-2 0  9993
2 63012  43.0019 222.7595 0001411 319.6489  40.4274 15.70882736 80286
STARLINK-11577 [DTC]    
1 63013U 25032J   26183.58963308  .00159439  00000+0  12222-2 0  9998
2 63013  42.9995 222.8448 0001679  27.4823 332.6133 15.70843066 80281
STARLINK-11578 [DTC]    
1 63014U 25032K   26183.79628280  .00140426  00000+0  10745-2 0  9993
2 63014  42.9986 221.8228 0006733 263.3220  96.6882 15.70926906 80266
STARLINK-11541 [DTC]    
1 63015U 25032L   26183.81741406  .00150980  00000+0  11580-2 0  9997
2 63015  43.0011 221.0968 0001188 287.4416  72.6322 15.70857756 80331
STARLINK-11545 [DTC]    
1 63016U 25032M   26183.82802538  .00161520  00000+0  12368-2 0  9990
2 63016  43.0013 221.1839 0003366 260.6919  99.3568 15.70859071 80333
STARLINK-11400 [DTC]    
1 63017U 25032N   26183.53666604  .00191531  00000+0  14622-2 0  9991
2 63017  42.9980 223.3112 0001826   1.0956 358.9915 15.70836779 80273
STARLINK-32870          
1 63018U 25032P   26183.66833094 -.00000750  00000+0 -17743-4 0  9998
2 63018  43.0023  46.7834 0000524 280.5144  79.5649 15.27571497 78204
STARLINK-32872          
1 63019U 25032Q   26183.69017579  .00019516  00000+0  71617-3 0  9991
2 63019  43.0018  46.9539 0001600 266.1550  93.9119 15.27610133 78203
STARLINK-32677          
1 63020U 25032R   26183.67218594  .00007974  00000+0  29922-3 0  9998
2 63020  43.0018  46.8149 0001002 264.3583  95.7154 15.27553975 78190
STARLINK-32929          
1 63021U 25032S   26183.67604084  .00017829  00000+0  65618-3 0  9994
2 63021  42.9984  46.8401 0000873 224.7356 135.3425 15.27563428 78203
STARLINK-32944          
1 63022U 25032T   26183.62864994  .00027372  00000+0  10003-2 0  9999
2 63022  43.0010  47.3520 0002000 275.9538  84.1085 15.27585060 78195
